NORAD_CAT_ID,OBJECT_NAME,OBJECT_TYPE,EPOCH,MEAN_MOTION,ECCENTRICITY,INCLINATION,RA_OF_ASC_NODE,ARG_OF_PERICENTER,MEAN_ANOMALY,BSTAR,MEAN_MOTION_DOT,MEAN_MOTION_DDOT,TLE_LINE0,TLE_LINE1,TLE_LINE2,SEMIMAJOR_AXIS,PERIOD,APOGEE,PERIGEE,DECAYED
40536,KOMPSAT 3A,PAYLOAD,2022-05-18 11:27:16,15.11680794,0.0005696000000000001,97.5301,81.533,192.4862,249.2145,0.00028247,4.744e-05,0.0,0 KOMPSAT 3A,1 40536U 15014A   22138.47726865  .00004744  00000-0  28247-3 0  9995,2 40536  97.5301  81.5330 0005696 192.4862 249.2145 15.11680794394514,6909.2109999999975,95.258,535.011,527.14,0.0
40536,KOMPSAT 3A,PAYLOAD,2022-05-18 14:49:30,15.11681854,0.0005702999999999999,97.5301,81.6713,191.8912,293.6169,0.00027698,4.651e-05,0.0,0 KOMPSAT 3A,1 40536U 15014A   22138.61771038  .00004651  00000-0  27698-3 0  9999,2 40536  97.5301  81.6713 0005703 191.8912 293.6169 15.11681854394537,6909.208000000001,95.258,535.013,527.132,0.0
40536,KOMPSAT 3A,PAYLOAD,2022-05-18 21:00:09,15.11686327,0.0005751,97.53,81.9252,191.5927,253.8306,0.00031436,5.288e-05,0.0,0 KOMPSAT 3A,1 40536U 15014A   22138.87511213  .00005288  00000-0  31436-3 0  9996,2 40536  97.5300  81.9252 0005751 191.5927 253.8306 15.11686327394578,6909.194,95.258,535.0319999999998,527.085,0.0
40536,KOMPSAT 3A,PAYLOAD,2022-05-19 03:24:04,15.11688898,0.0005733,97.5302,82.1874,190.3983,265.0154,0.00030932,5.203e-05,0.0,0 KOMPSAT 3A,1 40536U 15014A   22139.14172154  .00005203  00000-0  30932-3 0  9991,2 40536  97.5302  82.1874 0005733 190.3983 265.0154 15.11688898394618,6909.186,95.258,535.012,527.09,0.0
40536,KOMPSAT 3A,PAYLOAD,2022-05-19 12:54:05,15.1169211,0.0005797999999999999,97.5301,82.5777,188.362,259.9062,0.00029528,4.964e-05,0.0,0 KOMPSAT 3A,1 40536U 15014A   22139.53756575  .00004964  00000-0  29528-3 0  9991,2 40536  97.5301  82.5777 0005798 188.3620 259.9062 15.11692110394677,6909.1759999999995,95.257,535.047,527.035,0.0
40536,KOMPSAT 3A,PAYLOAD,2022-05-19 20:49:50,15.11697062,0.0005886,97.5301,82.9033,187.4231,257.6574,0.0003171,5.337e-05,0.0,0 KOMPSAT 3A,1 40536U 15014A   22139.86794257  .00005337  00000-0  31710-3 0  9997,2 40536  97.5301  82.9033 0005886 187.4231 257.6574 15.11697062394722,6909.161,95.257,535.0930000000002,526.96,0.0
40536,KOMPSAT 3A,PAYLOAD,2022-05-20 04:52:19,15.1170109,0.000586,97.53,83.2336,186.3179,281.0216,0.00032221,5.425e-05,0.0,0 KOMPSAT 3A,1 40536U 15014A   22140.20299811  .00005425  00000-0  32221-3 0  9999,2 40536  97.5300  83.2336 0005860 186.3179 281.0216 15.11701090394778,6909.149,95.257,535.063,526.965,0.0
40536,KOMPSAT 3A,PAYLOAD,2022-05-20 12:50:26,15.11704151,0.0005876000000000001,97.5303,83.5609,185.0661,288.0588,0.00031552,5.311e-05,0.0,0 KOMPSAT 3A,1 40536U 15014A   22140.53502429  .00005311  00000-0  31552-3 0  9997,2 40536  97.5303  83.5609 0005876 185.0661 288.0588 15.11704151394822,6909.14,95.257,535.064,526.945,0.0
40536,KOMPSAT 3A,PAYLOAD,2022-05-20 19:03:52,15.1170786,0.0005958,97.5303,83.8166,184.0392,259.54400000000004,0.00032537,5.479e-05,0.0,0 KOMPSAT 3A,1 40536U 15014A   22140.79436089  .00005479  00000-0  32537-3 0  9992,2 40536  97.5303  83.8166 0005958 184.0392 259.5440 15.11707860394868,6909.128000000002,95.257,535.11,526.877,0.0
40536,KOMPSAT 3A,PAYLOAD,2022-05-21 03:03:22,15.11711906,0.0005939,97.5303,84.1447,182.9466,271.6301,0.00032889999999999997,5.5399999999999985e-05,0.0,0 KOMPSAT 3A,1 40536U 15014A   22141.12734260  .00005540  00000-0  32890-3 0  9993,2 40536  97.5303  84.1447 0005939 182.9466 271.6301 15.11711906394915,6909.116,95.256,535.0840000000002,526.878,0.0
40536,KOMPSAT 3A,PAYLOAD,2022-05-21 12:42:01,15.11716664,0.000597,97.5306,84.5412,181.3025,298.8116,0.00033124,5.581e-05,0.0,0 KOMPSAT 3A,1 40536U 15014A   22141.52918934  .00005581  00000-0  33124-3 0  9995,2 40536  97.5306  84.5412 0005970 181.3025 298.8116 15.11716664394970,6909.102,95.256,535.091,526.842,0.0
40536,KOMPSAT 3A,PAYLOAD,2022-05-21 20:29:09,15.11720875,0.0006026,97.5305,84.8609,180.03099999999995,264.375,0.00033603,5.663e-05,0.0,0 KOMPSAT 3A,1 40536U 15014A   22141.85358193  .00005663  00000-0  33603-3 0  9999,2 40536  97.5305  84.8609 0006026 180.0310 264.3750 15.11720875395024,6909.089,95.256,535.117,526.79,0.0
40536,KOMPSAT 3A,PAYLOAD,2022-05-22 02:53:29,15.11724106,0.0006011,97.5305,85.1239,179.1294,276.8688,0.00033749,5.689e-05,0.0,0 KOMPSAT 3A,1 40536U 15014A   22142.12047946  .00005689  00000-0  33749-3 0  9990,2 40536  97.5305  85.1239 0006011 179.1294 276.8688 15.11724106395064,6909.079000000002,95.255,535.097,526.7909999999998,0.0
40536,KOMPSAT 3A,PAYLOAD,2022-05-22 12:29:05,15.11728741,0.0006014999999999999,97.5305,85.5175,177.5102,292.5191,0.00033778,5.694e-05,0.0,0 KOMPSAT 3A,1 40536U 15014A   22142.52020759  .00005694  00000-0  33778-3 0  9995,2 40536  97.5305  85.5175 0006015 177.5102 292.5191 15.11728741395121,6909.065,95.255,535.086,526.774,0.0
40536,KOMPSAT 3A,PAYLOAD,2022-05-22 18:44:20,15.11731822,0.0006039,97.5305,85.7743,176.4445,270.8678,0.00033841,5.706e-05,0.0,0 KOMPSAT 3A,1 40536U 15014A   22142.78079551  .00005706  00000-0  33841-3 0  9992,2 40536  97.5305  85.7743 0006039 176.4445 270.8678 15.11731822395165,6909.055,95.255,535.0930000000002,526.748,0.0
40536,KOMPSAT 3A,PAYLOAD,2022-05-23 02:43:12,15.11735743,0.0006024,97.5303,86.1021,175.2192,280.7142,0.00033894,5.715e-05,0.0,0 KOMPSAT 3A,1 40536U 15014A   22143.11333591  .00005715  00000-0  33894-3 0  9995,2 40536  97.5303  86.1021 0006024 175.2192 280.7142 15.11735743395215,6909.043000000002,95.255,535.07,526.746,0.0
40536,KOMPSAT 3A,PAYLOAD,2022-05-23 14:56:50,15.11741676,0.0006105,97.5303,86.6041,172.9707,173.8512,0.00033929,5.722e-05,0.0,0 KOMPSAT 3A,1 40536U 15014A   22143.62280093  .00005722  00000-0  33929-3 0  9996,2 40536  97.5303  86.6041 0006105 172.9707 173.8512 15.11741676395280,6909.025,95.25399999999999,535.1080000000002,526.672,0.0
40536,KOMPSAT 3A,PAYLOAD,2022-05-23 21:31:03,15.11744756,0.0006117000000000001,97.5303,86.8739,171.9701,223.8494,0.00033871,5.713e-05,0.0,0 KOMPSAT 3A,1 40536U 15014A   22143.89657248  .00005713  00000-0  33871-3 0  9991,2 40536  97.5303  86.8739 0006117 171.9701 223.8494 15.11744756395335,6909.016,95.25399999999999,535.107,526.655,0.0
40536,KOMPSAT 3A,PAYLOAD,2022-05-24 04:11:29,15.11747818,0.0006125,97.5302,87.1479,170.71599999999995,297.5066,0.00033778,5.697e-05,0.0,0 KOMPSAT 3A,1 40536U 15014A   22144.17464694  .00005697  00000-0  33778-3 0  9991,2 40536  97.5302  87.1479 0006125 170.7160 297.5066 15.11747818395373,6909.007,95.25399999999999,535.1030000000002,526.64,0.0
40536,KOMPSAT 3A,PAYLOAD,2022-05-24 12:08:56,15.117510800000002,0.0006147,97.5303,87.4746,169.9551,301.5616,0.00033475,5.646e-05,0.0,0 KOMPSAT 3A,1 40536U 15014A   22144.50620524  .00005646  00000-0  33475-3 0  9992,2 40536  97.5303  87.4746 0006147 169.9551 301.5616 15.11751080395421,6908.9969999999985,95.25399999999999,535.109,526.615,0.0
40536,KOMPSAT 3A,PAYLOAD,2022-05-24 19:58:21,15.11754196,0.0006189,97.5303,87.7958,168.805,275.7274,0.00033087,5.581e-05,0.0,0 KOMPSAT 3A,1 40536U 15014A   22144.83219572  .00005581  00000-0  33087-3 0  9992,2 40536  97.5303  87.7958 0006189 168.8050 275.7274 15.11754196395475,6908.986999999999,95.25399999999999,535.128,526.576,0.0
40536,KOMPSAT 3A,PAYLOAD,2022-05-25 04:01:08,15.11757327,0.000625,97.5302,88.126,167.6141,300.3543,0.00032651,5.507e-05,0.0,0 KOMPSAT 3A,1 40536U 15014A   22145.16745588  .00005507  00000-0  32651-3 0  9994,2 40536  97.5302  88.1260 0006250 167.6141 300.3543 15.11757327395521,6908.978,95.25299999999999,535.161,526.525,0.0
40536,KOMPSAT 3A,PAYLOAD,2022-05-25 11:58:42,15.11759919,0.0006307,97.5301,88.4526,166.7456,305.0176,0.00031964,5.39e-05,0.0,0 KOMPSAT 3A,1 40536U 15014A   22145.49910475  .00005390  00000-0  31964-3 0  9995,2 40536  97.5301  88.4526 0006307 166.7456 305.0176 15.11759919395578,6908.97,95.25299999999999,535.192,526.477,0.0
40536,KOMPSAT 3A,PAYLOAD,2022-05-25 18:13:28,15.11761603,0.0006322999999999999,97.5302,88.7089,165.6664,281.5699,0.00031157,5.252e-05,0.0,0 KOMPSAT 3A,1 40536U 15014A   22145.75935597  .00005252  00000-0  31157-3 0  9997,2 40536  97.5302  88.7089 0006323 165.6664 281.5699 15.11761603395619,6908.965,95.25299999999999,535.198,526.461,0.0
40536,KOMPSAT 3A,PAYLOAD,2022-05-25 21:23:22,15.11762493,0.0006331,97.5301,88.839,164.9357,279.5905,0.00030772,5.187e-05,0.0,0 KOMPSAT 3A,1 40536U 15014A   22145.89123787  .00005187  00000-0  30772-3 0  9991,2 40536  97.5301  88.8390 0006331 164.9357 279.5905 15.11762493395631,6908.9619999999995,95.25299999999999,535.201,526.453,0.0
40536,KOMPSAT 3A,PAYLOAD,2022-05-26 02:34:50,15.11764034,0.0006345,97.53,89.0521,163.9182,17.0222,0.00030259,5.099e-05,0.0,0 KOMPSAT 3A,1 40536U 15014A   22146.10753472  .00005099  00000-0  30259-3 0  9998,2 40536  97.5300  89.0521 0006345 163.9182  17.0222 15.11764034395662,6908.9569999999985,95.25299999999999,535.206,526.438,0.0
40536,KOMPSAT 3A,PAYLOAD,2022-05-26 06:24:07,15.11765427,0.0006317,97.5301,89.209,163.7001,163.1963,0.00030048,5.064e-05,0.0,0 KOMPSAT 3A,1 40536U 15014A   22146.26674991  .00005064  00000-0  30048-3 0  9991,2 40536  97.5301  89.2090 0006317 163.7001 163.1963 15.11765427395687,6908.953,95.25299999999999,535.182,526.4540000000002,0.0
40536,KOMPSAT 3A,PAYLOAD,2022-05-26 10:21:45,15.11766533,0.0006282999999999999,97.5299,89.3714,163.4748,340.9949,0.00029681,5.001e-05,0.0,0 KOMPSAT 3A,1 40536U 15014A   22146.43177869  .00005001  00000-0  29681-3 0  9994,2 40536  97.5299  89.3714 0006283 163.4748 340.9949 15.11766533395716,6908.95,95.25299999999999,535.155,526.474,0.0
40536,KOMPSAT 3A,PAYLOAD,2022-05-26 13:29:04,15.11766191,0.0006286000000000001,97.53,89.4996,163.8689,328.07599999999996,0.0002862,4.820000000000001e-05,0.0,0 KOMPSAT 3A,1 40536U 15014A   22146.56185723  .00004820  00000-0  28620-3 0  9996,2 40536  97.5300  89.4996 0006286 163.8689 328.0760 15.11766191395733,6908.951,95.25299999999999,535.159,526.4730000000002,0.0
